OBJECT_NAME,OBJECT_ID,EPOCH,MEAN_MOTION,ECCENTRICITY,INCLINATION,RA_OF_ASC_NODE,ARG_OF_PERICENTER,MEAN_ANOMALY,EPHEMERIS_TYPE,CLASSIFICATION_TYPE,NORAD_CAT_ID,ELEMENT_SET_NO,REV_AT_EPOCH,BSTAR,MEAN_MOTION_DOT,MEAN_MOTION_DDOT
ALOS-2,2014-029A,2026-06-11T15:51:42.712992,14.79472533,.00016401,97.9210,259.9038,89.2290,270.9110,0,U,39766,999,65076,.17641361E-3,.1266E-4,0
KAZEOSAT 2,2014-033A,2026-06-11T13:43:20.263584,14.85462893,.00083652,97.5415,2.4807,348.7747,11.3281,0,U,40010,999,64812,.75807575E-4,.604E-5,0
HODOYOSHI-4,2014-033B,2026-06-11T14:06:09.617184,14.88113429,.00229312,97.5455,347.6806,327.5770,32.4037,0,U,40011,999,64797,.98328841E-4,.856E-5,0
DEIMOS-2,2014-033D,2026-06-11T14:57:15.257664,14.93713355,.00019566,97.5847,37.3076,55.2477,304.8927,0,U,40013,999,63689,.10646882E-3,.1072E-4,0
HODOYOSHI-3,2014-033F,2026-06-11T09:24:04.550112,14.85376600,.00332244,97.6412,325.6658,16.3408,343.8870,0,U,40015,999,64676,.10540195E-3,.863E-5,0
SPOT 7,2014-034A,2026-06-11T15:12:53.955648,14.60955056,.00011879,98.0632,225.2687,87.2447,272.8890,0,U,40053,999,63632,.16454123E-3,.761E-5,0
SKYSAT-B,2014-037D,2026-06-11T14:40:01.147296,14.88013863,.00043794,98.3837,121.2583,305.6265,54.4542,0,U,40072,999,64513,.13635263E-3,.119E-4,0
WORLDVIEW-3 (WV-3),2014-048A,2026-06-11T13:47:41.150976,14.85012778,.00014264,97.8566,237.4851,34.3546,325.7761,0,U,40115,999,64107,.91884055E-4,.73E-5,0
GAOFEN-2,2014-049A,2026-06-11T15:15:32.287104,14.80893403,.00058999,98.0112,226.8484,249.0756,110.9825,0,U,40118,999,63841,.72861688E-4,.51E-5,0
YAOGAN-21,2014-053A,2026-06-11T15:44:10.314816,15.26294474,.00098703,97.1480,203.1295,109.5384,250.6922,0,U,40143,999,65411,.33321459E-3,.8589E-4,0
YAOGAN-22,2014-063A,2026-06-11T09:44:21.784416,13.15530967,.00062091,100.7716,313.5831,198.3818,161.7070,0,U,40275,999,55905,-.476509E-5,-.49E-6,0
ASNARO,2014-070A,2026-06-11T15:03:13.333824,15.19355849,.00050081,97.3452,238.8929,183.6116,176.5083,0,U,40298,999,64316,.49009238E-3,.10304E-3,0
YAOGAN-24,2014-072A,2026-06-11T14:12:11.537280,14.76214836,.00125846,98.1476,299.8830,283.5581,76.4226,0,U,40310,999,62289,.536226E-4,.318E-5,0
CBERS 4,2014-079A,2026-06-11T14:24:39.520224,14.35508481,.00019811,98.3536,219.6074,68.8903,291.2495,0,U,40336,999,60315,.12725051E-3,.324E-5,0
YAOGAN-26,2014-088A,2026-06-11T15:16:17.071680,15.47120437,.00064346,97.0642,162.9753,79.8128,280.3848,0,U,40362,999,63684,.30021656E-3,.15152E-3,0
SMAP,2015-003A,2026-06-11T14:38:04.709472,14.63361795,.00012878,98.1276,169.7833,93.9690,266.1660,0,U,40376,999,60680,.84142304E-4,.388E-5,0
KOMPSAT-3A,2015-014A,2026-06-11T15:20:30.768000,15.53738019,.00560316,97.6881,153.5965,194.5976,165.3662,0,U,40536,999,62095,.33904853E-3,.23171E-3,0
SENTINEL-2A,2015-028A,2026-06-11T14:53:11.609664,14.30814442,.00011125,98.5684,237.5508,86.2619,273.8691,0,U,40697,999,57293,.11273412E-3,.252E-5,0
GAOFEN-8,2015-030A,2026-06-11T15:36:29.974752,15.45755009,.00083251,97.6908,355.6899,206.2233,153.8595,0,U,40701,999,61059,.45014555E-3,.21738E-3,0
CARBONITE 1 (CBNT-1),2015-032D,2026-06-11T14:01:40.667808,14.83570662,.0013499,97.6508,340.8861,317.9932,42.0246,0,U,40718,999,58851,.21821658E-3,.1749E-4,0
YAOGAN-27,2015-040A,2026-06-11T15:08:45.453696,13.16070112,.00075376,100.1150,149.2546,224.2799,135.7712,0,U,40878,999,51693,.83600517E-3,.275E-5,0
GAOFEN-9 01,2015-047A,2026-06-11T14:19:28.361856,14.82873252,.00279825,97.6277,198.5456,155.5368,204.7181,0,U,40894,999,57936,.11317902E-3,.872E-5,0
YAOGAN-28,2015-064A,2026-06-11T14:57:13.946976,15.27350455,.00101209,97.3061,300.9988,203.1939,156.8845,0,U,41026,999,58983,.25392536E-3,.6738E-4,0
YAOGAN-29,2015-069A,2026-06-11T15:29:24.426240,14.83082519,.00028374,98.0035,191.2697,64.3459,295.8047,0,U,41038,999,56980,.11904945E-3,.915E-5,0
KENT RIDGE 1,2015-077B,2026-06-11T01:45:24.880032,15.23095182,.00082332,14.9802,311.4591,152.2159,207.8603,0,U,41167,999,58016,.12611853E-3,.3829E-4,0
GAOFEN-4,2015-083A,2026-06-11T16:14:51.842688,1.00271964,.00042467,0.3416,83.8348,111.9306,53.6863,0,U,41194,999,3847,0,-.318E-5,0
JASON-3,2016-002A,2026-06-11T13:34:40.039680,12.87627960,.00085707,66.0397,137.6535,273.0388,86.9650,0,U,41240,999,48652,.84679234E-4,-.41E-6,0
SENTINEL-3A,2016-011A,2026-06-11T14:32:53.374848,14.26738425,.00013768,98.6249,230.0697,103.4974,256.6360,0,U,41335,999,53726,.51909639E-4,.82E-6,0
ZIYUAN 3-02 (ZY 3-02),2016-033A,2026-06-11T14:23:05.359776,15.21427330,.00114267,97.3839,238.4804,312.1010,47.9254,0,U,41556,999,55713,.20826636E-3,.4614E-4,0
CARTOSAT-2C,2016-040A,2026-06-11T14:15:07.578144,15.19273472,.00101399,97.4489,222.6490,148.4135,211.7710,0,U,41599,999,55286,.21173342E-3,.4403E-4,0
