ALOS-2                  
1 39766U 14029A   26162.66091103  .00001266  00000+0  17641-3 0  9996
2 39766  97.9210 259.9038 0001640  89.2290 270.9110 14.79472533650767
KAZEOSAT 2              
1 40010U 14033A   26162.57176231  .00000604  00000+0  75808-4 0  9996
2 40010  97.5415   2.4807 0008365 348.7747  11.3281 14.85462893648128
HODOYOSHI-4             
1 40011U 14033B   26162.58761131  .00000856  00000+0  98329-4 0  9999
2 40011  97.5455 347.6806 0022931 327.5770  32.4037 14.88113429647978
DEIMOS-2                
1 40013U 14033D   26162.62309326  .00001072  00000+0  10647-3 0  9997
2 40013  97.5847  37.3076 0001956  55.2477 304.8927 14.93713355636893
HODOYOSHI-3             
1 40015U 14033F   26162.39171933  .00000863  00000+0  10540-3 0  9993
2 40015  97.6412 325.6658 0033224  16.3408 343.8870 14.85376600646764
SPOT 7                  
1 40053U 14034A   26162.63395782  .00000761  00000+0  16454-3 0  9990
2 40053  98.0632 225.2687 0001187  87.2447 272.8890 14.60955056636320
SKYSAT-B                
1 40072U 14037D   26162.61112439  .00001190  00000+0  13635-3 0  9993
2 40072  98.3837 121.2583 0004379 305.6265  54.4542 14.88013863645130
WORLDVIEW-3 (WV-3)      
1 40115U 14048A   26162.57478184  .00000730  00000+0  91884-4 0  9992
2 40115  97.8566 237.4851 0001426  34.3546 325.7761 14.85012778641074
GAOFEN-2                
1 40118U 14049A   26162.63579036  .00000510  00000+0  72862-4 0  9992
2 40118  98.0112 226.8484 0005899 249.0756 110.9825 14.80893403638413
YAOGAN-21               
1 40143U 14053A   26162.65567494  .00008589  00000+0  33321-3 0  9992
2 40143  97.1480 203.1295 0009870 109.5384 250.6922 15.26294474654116
YAOGAN-22               
1 40275U 14063A   26162.40580769 -.00000049  00000+0 -47651-5 0  9990
2 40275 100.7716 313.5831 0006209 198.3818 161.7070 13.15530967559057
ASNARO                  
1 40298U 14070A   26162.62723766  .00010304  00000+0  49009-3 0  9993
2 40298  97.3452 238.8929 0005008 183.6116 176.5083 15.19355849643165
YAOGAN-24               
1 40310U 14072A   26162.59180020  .00000318  00000+0  53623-4 0  9998
2 40310  98.1476 299.8830 0012584 283.5581  76.4226 14.76214836622892
CBERS 4                 
1 40336U 14079A   26162.60045741  .00000324  00000+0  12725-3 0  9999
2 40336  98.3536 219.6074 0001981  68.8903 291.2495 14.35508481603150
YAOGAN-26               
1 40362U 14088A   26162.63630870  .00015152  00000+0  30022-3 0  9999
2 40362  97.0642 162.9753 0006434  79.8128 280.3848 15.47120437636844
SMAP                    
1 40376U 15003A   26162.60977673  .00000388  00000+0  84142-4 0  9992
2 40376  98.1276 169.7833 0001287  93.9690 266.1660 14.63361795606808
KOMPSAT-3A              
1 40536U 15014A   26162.63924500  .00023171  00000+0  33905-3 0  9991
2 40536  97.6881 153.5965 0056031 194.5976 165.3662 15.53738019620952
SENTINEL-2A             
1 40697U 15028A   26162.62027326  .00000252  00000+0  11273-3 0  9992
2 40697  98.5684 237.5508 0001112  86.2619 273.8691 14.30814442572938
GAOFEN-8                
1 40701U 15030A   26162.65034693  .00021738  00000+0  45015-3 0  9992
2 40701  97.6908 355.6899 0008325 206.2233 153.8595 15.45755009610592
CARBONITE 1 (CBNT-1)    
1 40718U 15032D   26162.58449847  .00001749  00000+0  21822-3 0  9995
2 40718  97.6508 340.8861 0013499 317.9932  42.0246 14.83570662588514
YAOGAN-27               
1 40878U 15040A   26162.63108164  .00000275  00000+0  83601-3 0  9997
2 40878 100.1150 149.2546 0007537 224.2799 135.7712 13.16070112516937
GAOFEN-9 01             
1 40894U 15047A   26162.59685604  .00000872  00000+0  11318-3 0  9995
2 40894  97.6277 198.5456 0027982 155.5368 204.7181 14.82873252579369
YAOGAN-28               
1 41026U 15064A   26162.62307809  .00006738  00000+0  25393-3 0  9999
2 41026  97.3061 300.9988 0010120 203.1939 156.8845 15.27350455589836
YAOGAN-29               
1 41038U 15069A   26162.64542160  .00000915  00000+0  11905-3 0  9995
2 41038  98.0035 191.2697 0002837  64.3459 295.8047 14.83082519569803
KENT RIDGE 1            
1 41167U 15077B   26162.07320463  .00003829  00000+0  12612-3 0  9997
2 41167  14.9802 311.4591 0008233 152.2159 207.8603 15.23095182580162
GAOFEN-4                
1 41194U 15083A   26162.67698892 -.00000318  00000+0  00000+0 0  9999
2 41194   0.3416  83.8348 0004246 111.9306  53.6863  1.00271964 38479
JASON-3                 
1 41240U 16002A   26162.56574120 -.00000041  00000+0  84679-4 0  9990
2 41240  66.0397 137.6535 0008570 273.0388  86.9650 12.87627960486522
SENTINEL-3A             
1 41335U 16011A   26162.60617332  .00000082  00000+0  51910-4 0  9999
2 41335  98.6249 230.0697 0001376 103.4974 256.6360 14.26738425537261
ZIYUAN 3-02 (ZY 3-02)   
1 41556U 16033A   26162.59936759  .00004614  00000+0  20827-3 0  9990
2 41556  97.3839 238.4804 0011426 312.1010  47.9254 15.21427330557133
CARTOSAT-2C             
1 41599U 16040A   26162.59383771  .00004403  00000+0  21173-3 0  9996
2 41599  97.4489 222.6490 0010139 148.4135 211.7710 15.19273472552862
